[
  {
    "name": "ONEWEB-0654",
    "noradId": "55816",
    "line1": "1 55816U 23029W   26179.79486260 -.00000341  00000+0 -95344-3 0  9995",
    "line2": "2 55816  87.8969 287.3916 0002012  90.2319 269.9041 13.14502002160948"
  },
  {
    "name": "ONEWEB-0656",
    "noradId": "55817",
    "line1": "1 55817U 23029X   26179.94669126 -.00000045  00000+0 -14250-3 0  9995",
    "line2": "2 55817  87.9199 272.0868 0002136  88.2127 271.9251 13.20774034162708"
  },
  {
    "name": "ONEWEB-0657",
    "noradId": "55818",
    "line1": "1 55818U 23029Y   26179.90041126  .00000028  00000+0  37045-4 0  9993",
    "line2": "2 55818  87.9177 302.6410 0002591  95.1638 264.9790 13.19725359160451"
  },
  {
    "name": "ONEWEB-0658",
    "noradId": "55819",
    "line1": "1 55819U 23029Z   26179.89567247  .00000049  00000+0  89345-4 0  9992",
    "line2": "2 55819  87.9187 302.6186 0001976 112.4729 247.6613 13.19725338160463"
  },
  {
    "name": "ONEWEB-0660",
    "noradId": "55820",
    "line1": "1 55820U 23029AA  26179.84878232 -.00000412  00000+0 -11461-2 0  9996",
    "line2": "2 55820  87.8982 287.3749 0001575 105.9246 254.2058 13.14505143160931"
  },
  {
    "name": "ONEWEB-0661",
    "noradId": "55821",
    "line1": "1 55821U 23029AB  26179.80756762 -.00000011  00000+0 -64961-4 0  9996",
    "line2": "2 55821  87.8960 287.4262 0001625 100.7279 259.4034 13.14503347160917"
  },
  {
    "name": "ONEWEB-0662",
    "noradId": "55822",
    "line1": "1 55822U 23029AC  26179.84245372  .00000078  00000+0  17617-3 0  9997",
    "line2": "2 55822  87.8960 287.4251 0001616 105.1254 255.0054 13.14503494160960"
  },
  {
    "name": "ONEWEB-0663",
    "noradId": "55823",
    "line1": "1 55823U 23029AD  26179.67652975  .00000149  00000+0  33436-3 0  9996",
    "line2": "2 55823  87.9200 272.2122 0001805 111.4906 248.6420 13.20870947162663"
  },
  {
    "name": "ONEWEB-0664",
    "noradId": "55824",
    "line1": "1 55824U 23029AE  26179.70597722 -.00000039  00000+0 -12900-3 0  9992",
    "line2": "2 55824  87.9185 272.1861 0001595  91.4190 268.7126 13.20771376162665"
  },
  {
    "name": "ONEWEB-0665",
    "noradId": "55825",
    "line1": "1 55825U 23029AF  26179.80439315 -.00000080  00000+0 -24972-3 0  9995",
    "line2": "2 55825  87.8961 287.4076 0001711 108.5030 251.6286 13.14503231160939"
  },
  {
    "name": "ONEWEB-0666",
    "noradId": "55826",
    "line1": "1 55826U 23029AG  26179.69923629 -.00000071  00000+0 -20542-3 0  9998",
    "line2": "2 55826  87.9185 272.1772 0002719  96.0886 264.0558 13.20772114162670"
  },
  {
    "name": "ONEWEB-0667",
    "noradId": "55827",
    "line1": "1 55827U 23029AH  26179.69418762 -.00000006  00000+0 -46289-4 0  9991",
    "line2": "2 55827  87.9200 272.1381 0001824 101.0595 259.0744 13.20772560162660"
  },
  {
    "name": "ONEWEB-0669",
    "noradId": "55828",
    "line1": "1 55828U 23029AJ  26179.68913160  .00000023  00000+0  23777-4 0  9997",
    "line2": "2 55828  87.9194 272.1495 0001988  83.2096 276.9263 13.20772781162666"
  },
  {
    "name": "ONEWEB-0670",
    "noradId": "55829",
    "line1": "1 55829U 23029AK  26179.85829951 -.00000166  00000+0 -48307-3 0  9996",
    "line2": "2 55829  87.8962 287.4139 0001548  96.1778 263.9528 13.14500387160960"
  },
  {
    "name": "ONEWEB-0671",
    "noradId": "55830",
    "line1": "1 55830U 23029AL  26179.89092483 -.00000052  00000+0 -16239-3 0  9997",
    "line2": "2 55830  87.9180 302.6443 0001742 102.1731 257.9597 13.19724750160445"
  },
  {
    "name": "ONEWEB-0672",
    "noradId": "55831",
    "line1": "1 55831U 23029AM  26179.68407248 -.00000003  00000+0 -39818-4 0  9999",
    "line2": "2 55831  87.9196 272.1440 0002211  95.2785 264.8601 13.20772947162666"
  },
  {
    "name": "ONEWEB-0673",
    "noradId": "55832",
    "line1": "1 55832U 23029AN  26179.79219100 -.00000039  00000+0 -12944-3 0  9999",
    "line2": "2 55832  87.9187 302.6563 0001780 100.8068 259.3266 13.19724285160438"
  },
  {
    "name": "ONEWEB-0674",
    "noradId": "55833",
    "line1": "1 55833U 23029AP  26179.82657759  .00000220  00000+0  55948-3 0  9991",
    "line2": "2 55833  87.8960 287.3972 0001551  94.5689 265.5618 13.14504606160948"
  },
  {
    "name": "ONEWEB-0675",
    "noradId": "55834",
    "line1": "1 55834U 23029AQ  26179.88303665 -.00000048  00000+0 -15266-3 0  9991",
    "line2": "2 55834  87.9178 302.6472 0002215 100.9177 259.2205 13.19725274160469"
  },
  {
    "name": "ONEWEB-0720",
    "noradId": "55835",
    "line1": "1 55835U 23029AR  26179.87513247 -.00000040  00000+0 -13159-3 0  9991",
    "line2": "2 55835  87.9178 302.6487 0001811 109.2479 250.8849 13.19725162160382"
  },
  {
    "name": "ONEWEB-0537",
    "noradId": "56046",
    "line1": "1 56046U 23043A   26179.67013802  .00000059  00000+0  12004-3 0  9998",
    "line2": "2 56046  87.9090 226.4910 0002242  93.9081 266.2307 13.16594964160472"
  },
  {
    "name": "ONEWEB-0538",
    "noradId": "56047",
    "line1": "1 56047U 23043B   26179.58780490  .00000040  00000+0  71443-4 0  9996",
    "line2": "2 56047  87.9088 226.5100 0002236 101.1917 258.9465 13.16595724160473"
  },
  {
    "name": "ONEWEB-0546",
    "noradId": "56048",
    "line1": "1 56048U 23043C   26179.65113540  .00000085  00000+0  18824-3 0  9993",
    "line2": "2 56048  87.9090 226.4975 0002634  86.8927 273.2505 13.16595247160473"
  },
  {
    "name": "ONEWEB-0547",
    "noradId": "56049",
    "line1": "1 56049U 23043D   26179.67828416  .00000054  00000+0  10026-3 0  9993",
    "line2": "2 56049  87.9252 241.6882 0002069 103.2135 256.9230 13.21826354159740"
  },
  {
    "name": "ONEWEB-0548",
    "noradId": "56050",
    "line1": "1 56050U 23043E   26179.67567258  .00000040  00000+0  72089-4 0  9992",
    "line2": "2 56050  87.9088 226.4885 0001757  84.6299 275.5032 13.16593622160471"
  },
  {
    "name": "ONEWEB-0549",
    "noradId": "56051",
    "line1": "1 56051U 23043F   26179.67240175  .00000015  00000+0  56943-5 0  9993",
    "line2": "2 56051  87.9246 241.6953 0002395 104.7668 255.3732 13.21826140159747"
  },
  {
    "name": "ONEWEB-0550",
    "noradId": "56052",
    "line1": "1 56052U 23043G   26179.73465073  .00000077  00000+0  15434-3 0  9993",
    "line2": "2 56052  87.9247 241.6808 0001856  95.3233 264.8113 13.21825941159759"
  },
  {
    "name": "ONEWEB-0551",
    "noradId": "56053",
    "line1": "1 56053U 23043H   26179.94410750 -.00000258  00000+0 -71924-3 0  9998",
    "line2": "2 56053  87.8996 256.8842 0002190 108.9832 251.1536 13.15547702157940"
  },
  {
    "name": "ONEWEB-0552",
    "noradId": "56054",
    "line1": "1 56054U 23043J   26179.72957875  .00000077  00000+0  15533-3 0  9990",
    "line2": "2 56054  87.9243 241.6868 0001909 102.5087 257.6261 13.21825273159752"
  },
  {
    "name": "ONEWEB-0553",
    "noradId": "56055",
    "line1": "1 56055U 23043K   26179.65746798  .00000084  00000+0  18710-3 0  9991",
    "line2": "2 56055  87.9089 226.4965 0002300  87.6418 272.4976 13.16594837160480"
  },
  {
    "name": "ONEWEB-0554",
    "noradId": "56056",
    "line1": "1 56056U 23043L   26179.56881070  .00000122  00000+0  28498-3 0  9992",
    "line2": "2 56056  87.9087 226.5230 0001723  84.1851 275.9476 13.16595278160456"
  },
  {
    "name": "ONEWEB-0555",
    "noradId": "56057",
    "line1": "1 56057U 23043M   26179.68279294 -.00000025  00000+0 -99592-4 0  9993",
    "line2": "2 56057  87.9092 226.4889 0002511  86.3510 273.7908 13.16592975160473"
  },
  {
    "name": "ONEWEB-0557",
    "noradId": "56058",
    "line1": "1 56058U 23043N   26179.62104962 -.00000061  00000+0 -19359-3 0  9999",
    "line2": "2 56058  87.9090 226.5111 0002225  61.8219 298.3136 13.16594844160469"
  },
  {
    "name": "ONEWEB-0558",
    "noradId": "56059",
    "line1": "1 56059U 23043P   26179.72285247 -.00000042  00000+0 -13202-3 0  9997",
    "line2": "2 56059  87.9247 241.6832 0002316 103.2792 256.8601 13.21824867159764"
  },
  {
    "name": "ONEWEB-0559",
    "noradId": "56060",
    "line1": "1 56060U 23043Q   26179.71107187 -.00000007  00000+0 -48405-4 0  9999",
    "line2": "2 56060  87.9250 241.6809 0002042 104.5037 255.6324 13.21826136159777"
  },
  {
    "name": "ONEWEB-0566",
    "noradId": "56061",
    "line1": "1 56061U 23043R   26179.93143761 -.00000034  00000+0 -11407-3 0  9993",
    "line2": "2 56061  87.9248 241.6351 0002106 107.2491 252.8873 13.21827119159783"
  },
  {
    "name": "ONEWEB-0568",
    "noradId": "56062",
    "line1": "1 56062U 23043S   26179.63848813  .00003312  00000+0  86303-2 0  9997",
    "line2": "2 56062  87.9086 226.4972 0002178  91.3157 268.8224 13.16577887160489"
  },
  {
    "name": "ONEWEB-0574",
    "noradId": "56063",
    "line1": "1 56063U 23043T   26179.92472503  .00000029  00000+0  37830-4 0  9994",
    "line2": "2 56063  87.9256 241.6404 0001962  92.3219 267.8140 13.21824415159828"
  },
  {
    "name": "ONEWEB-0575",
    "noradId": "56064",
    "line1": "1 56064U 23043U   26179.63214436 -.00000062  00000+0 -19695-3 0  9999",
    "line2": "2 56064  87.9086 226.4948 0002067  83.8177 276.3190 13.16594501160476"
  },
  {
    "name": "ONEWEB-0576",
    "noradId": "56065",
    "line1": "1 56065U 23043V   26179.68913583 -.00000089  00000+0 -26629-3 0  9998",
    "line2": "2 56065  87.9094 226.4916 0002044  89.1055 271.0310 13.16594281160471"
  },
  {
    "name": "ONEWEB-0577",
    "noradId": "56066",
    "line1": "1 56066U 23043W   26179.61948205 -.00000106  00000+0 -31188-3 0  9997",
    "line2": "2 56066  87.9091 226.5030 0001819  73.3666 286.7664 13.16594057160497"
  },
  {
    "name": "ONEWEB-0578",
    "noradId": "56067",
    "line1": "1 56067U 23043X   26179.91127067  .00000111  00000+0  23677-3 0  9994",
    "line2": "2 56067  87.9251 241.6401 0002290  92.1238 268.0158 13.21825165159788"
  },
  {
    "name": "ONEWEB-0579",
    "noradId": "56068",
    "line1": "1 56068U 23043Y   26179.67576575  .00000066  00000+0  12855-3 0  9995",
    "line2": "2 56068  87.9256 241.6846 0001863 104.3108 255.8233 13.21826406159769"
  }
]